format  = 'OEF1.1'       ! file format
rectype = 'ML'           ! record type (1L/ML)
refsys  = ECLM J2000     ! default reference system
END_OF_HEADER
1996 RO13
! Equinoctial elements: a, e*sin(LP), e*cos(LP), tan(i/2)*sin(LN), tan(i/2)*cos(LN), mean long.
 EQU   3.20852881042291E+00  0.124545594982171  0.103482643474338 -0.002502355335329 -0.000751054604612  10.2446324812511
 MJD     50349.49432639 TDT
 MAG  14.440  0.150
1996 RO13
! Equinoctial elements: a, e*sin(LP), e*cos(LP), tan(i/2)*sin(LN), tan(i/2)*cos(LN), mean long.
 EQU   3.21770130525879E+00  0.134940227093212  0.128969310151051 -0.002463342208262 -0.000751155747141  11.3060087447347
 MJD     50349.49432639 TDT
 MAG  14.663  0.150
! RMS    1.69278E-03   2.61344E-03   7.59475E-03   1.14802E-05   1.66128E-05   2.60912E-01
! EIG   3.30098E-07   4.51928E-07   1.08166E-05   1.61374E-04   1.84681E-03   9.20197E-03
! WEA  -0.14711  -0.27733  -0.81830  -0.00123  -0.00133  -0.48149
 COV   2.865495667013742E-06  4.015725942406831E-06  9.200867259318024E-06
 COV   1.369191308476742E-08  1.361739139723868E-08  4.036403069678693E-04
 COV   6.830093671792514E-06  1.865868838089752E-05  2.800309272567310E-08
 COV   2.964411714276969E-08  6.817951392248955E-04  5.768020408784420E-05
 COV   8.695397950650579E-08  9.535473667607449E-08  1.851924381047354E-03
 COV   1.317941039071863E-10  1.364771743419260E-10  2.778774858777835E-06
 COV   2.759862670514347E-10  2.936408943901717E-06  6.807515857742512E-02
 NOR   2.415396815903315E+08 -3.893669660702815E+10  6.478566385496548E+08
 NOR   2.080854809647274E+09  5.722090386706479E+07  3.708199011957682E+08
 NOR   7.067068733191403E+12 -1.170269584662546E+11 -3.230217304206708E+09
 NOR   1.448846373190374E+10 -6.736503119351529E+10  1.951938449756994E+09
 NOR  -7.693752883959591E+09 -7.535724909742055E+08  1.115467985291914E+09
 NOR   4.876135038578619E+12  3.125741191686829E+11  1.679248732733526E+07
 NOR   2.864963659566620E+10 -1.389405752725562E+08  6.421442688021368E+08
!MOID  1.62658    0
!NODES  2.71506  1.67604
